{
  "type": "FeatureCollection",
  "features": [
    {
      "type": "Feature",
      "properties": {
        "norad_id": 31507,
        "name": "FENGYUN 1C DEB",
        "group": "fengyun-1c-debris",
        "lat": -78.03000890905348,
        "lon": 155.765528032383,
        "alt_km": 809.5831737948674,
        "timestamp": "2025-12-12T07:43:20.796862+00:00",
        "meta_object_name": "FENGYUN 1C DEB",
        "meta_object_id": "1999-025BWW",
        "meta_epoch": "2025-12-10T20:36:42.319296",
        "meta_mean_motion": 14.52159701,
        "meta_eccentricity": 0.01179482,
        "meta_inclination": 98.1941,
        "meta_ra_of_asc_node": 17.1537,
        "meta_arg_of_pericenter": 83.9586,
        "meta_mean_anomaly": 93.8484,
        "meta_ephemeris_type": 0,
        "meta_classification_type": "U",
        "meta_norad_cat_id": 31507,
        "meta_element_set_no": 999,
        "meta_rev_at_epoch": 97993,
        "meta_bstar": 0.00065057853,
        "meta_mean_motion_dot": 2.841e-05,
        "meta_mean_motion_ddot": 0,
        "tle_line1": "1 31507U 99025BWW 25344.85882314  .00002841  00000+0  65058-3 0  9999",
        "tle_line2": "2 31507  98.1941  17.1537 0117948  83.9586  93.8484 14.52159701979931"
      },
      "geometry": {
        "type": "Point",
        "coordinates": [
          155.765528032383,
          -78.03000890905348
        ]
      }
    },
    {
      "type": "Feature",
      "properties": {
        "norad_id": 31508,
        "name": "FENGYUN 1C DEB",
        "group": "fengyun-1c-debris",
        "lat": -72.45101020136362,
        "lon": 123.5669660913403,
        "alt_km": 674.7325315545313,
        "timestamp": "2025-12-12T07:43:20.796872+00:00",
        "meta_object_name": "FENGYUN 1C DEB",
        "meta_object_id": "1999-025BWX",
        "meta_epoch": "2025-12-10T06:47:57.881184",
        "meta_mean_motion": 14.62386432,
        "meta_eccentricity": 0.0033202,
        "meta_inclination": 98.6307,
        "meta_ra_of_asc_node": 92.7339,
        "meta_arg_of_pericenter": 332.6085,
        "meta_mean_anomaly": 27.3363,
        "meta_ephemeris_type": 0,
        "meta_classification_type": "U",
        "meta_norad_cat_id": 31508,
        "meta_element_set_no": 999,
        "meta_rev_at_epoch": 96888,
        "meta_bstar": 0.0042082,
        "meta_mean_motion_dot": 0.00021458,
        "meta_mean_motion_ddot": 0,
        "tle_line1": "1 31508U 99025BWX 25344.28330881  .00021458  00000+0  42082-2 0  9990",
        "tle_line2": "2 31508  98.6307  92.7339 0033202 332.6085  27.3363 14.62386432968884"
      },
      "geometry": {
        "type": "Point",
        "coordinates": [
          123.5669660913403,
          -72.45101020136362
        ]
      }
    },
    {
      "type": "Feature",
      "properties": {
        "norad_id": 31509,
        "name": "FENGYUN 1C DEB",
        "group": "fengyun-1c-debris",
        "lat": 70.15967411397682,
        "lon": 79.45410743473781,
        "alt_km": 1029.2113779912925,
        "timestamp": "2025-12-12T07:43:20.796882+00:00",
        "meta_object_name": "FENGYUN 1C DEB",
        "meta_object_id": "1999-025BWY",
        "meta_epoch": "2025-12-11T19:18:47.452896",
        "meta_mean_motion": 13.94882364,
        "meta_eccentricity": 0.02044112,
        "meta_inclination": 99.0222,
        "meta_ra_of_asc_node": 105.0735,
        "meta_arg_of_pericenter": 220.9985,
        "meta_mean_anomaly": 137.5657,
        "meta_ephemeris_type": 0,
        "meta_classification_type": "U",
        "meta_norad_cat_id": 31509,
        "meta_element_set_no": 999,
        "meta_rev_at_epoch": 93949,
        "meta_bstar": 0.0033353465,
        "meta_mean_motion_dot": 5.291e-05,
        "meta_mean_motion_ddot": 0,
        "tle_line1": "1 31509U 99025BWY 25345.80471589  .00005291  00000+0  33353-2 0  9999",
        "tle_line2": "2 31509  99.0222 105.0735 0204411 220.9985 137.5657 13.94882364939498"
      },
      "geometry": {
        "type": "Point",
        "coordinates": [
          79.45410743473781,
          70.15967411397682
        ]
      }
    },
    {
      "type": "Feature",
      "properties": {
        "norad_id": 31510,
        "name": "FENGYUN 1C DEB",
        "group": "fengyun-1c-debris",
        "lat": 18.915623410354392,
        "lon": 168.48987136270642,
        "alt_km": 836.6338203279356,
        "timestamp": "2025-12-12T07:43:20.796892+00:00",
        "meta_object_name": "FENGYUN 1C DEB",
        "meta_object_id": "1999-025BWZ",
        "meta_epoch": "2025-12-10T18:43:19.037280",
        "meta_mean_motion": 14.24554667,
        "meta_eccentricity": 0.00371829,
        "meta_inclination": 98.5535,
        "meta_ra_of_asc_node": 344.0323,
        "meta_arg_of_pericenter": 337.4841,
        "meta_mean_anomaly": 201.4246,
        "meta_ephemeris_type": 0,
        "meta_classification_type": "U",
        "meta_norad_cat_id": 31510,
        "meta_element_set_no": 999,
        "meta_rev_at_epoch": 96459,
        "meta_bstar": 0.00081900652,
        "meta_mean_motion_dot": 1.871e-05,
        "meta_mean_motion_ddot": 0,
        "tle_line1": "1 31510U 99025BWZ 25344.78008145  .00001871  00000+0  81901-3 0  9994",
        "tle_line2": "2 31510  98.5535 344.0323 0037182 337.4841 201.4246 14.24554667964593"
      },
      "geometry": {
        "type": "Point",
        "coordinates": [
          168.48987136270642,
          18.915623410354392
        ]
      }
    },
    {
      "type": "Feature",
      "properties": {
        "norad_id": 31511,
        "name": "FENGYUN 1C DEB",
        "group": "fengyun-1c-debris",
        "lat": 33.00536060105899,
        "lon": -19.092384085928668,
        "alt_km": 783.2344202428621,
        "timestamp": "2025-12-12T07:43:20.796906+00:00",
        "meta_object_name": "FENGYUN 1C DEB",
        "meta_object_id": "1999-025BXA",
        "meta_epoch": "2025-12-09T21:51:20.287872",
        "meta_mean_motion": 14.28041477,
        "meta_eccentricity": 0.01096799,
        "meta_inclination": 99.067,
        "meta_ra_of_asc_node": 152.4515,
        "meta_arg_of_pericenter": 234.5791,
        "meta_mean_anomaly": 124.5108,
        "meta_ephemeris_type": 0,
        "meta_classification_type": "U",
        "meta_norad_cat_id": 31511,
        "meta_element_set_no": 999,
        "meta_rev_at_epoch": 95760,
        "meta_bstar": 0.0020254398,
        "meta_mean_motion_dot": 5.318e-05,
        "meta_mean_motion_ddot": 0,
        "tle_line1": "1 31511U 99025BXA 25343.91065148  .00005318  00000+0  20254-2 0  9998",
        "tle_line2": "2 31511  99.0670 152.4515 0109679 234.5791 124.5108 14.28041477957606"
      },
      "geometry": {
        "type": "Point",
        "coordinates": [
          -19.092384085928668,
          33.00536060105899
        ]
      }
    },
    {
      "type": "Feature",
      "properties": {
        "norad_id": 31512,
        "name": "FENGYUN 1C DEB",
        "group": "fengyun-1c-debris",
        "lat": 1.871021578030603,
        "lon": -118.60016814896133,
        "alt_km": 833.544460429629,
        "timestamp": "2025-12-12T07:43:20.796916+00:00",
        "meta_object_name": "FENGYUN 1C DEB",
        "meta_object_id": "1999-025BXB",
        "meta_epoch": "2025-12-10T11:37:14.435040",
        "meta_mean_motion": 14.43807468,
        "meta_eccentricity": 0.014421,
        "meta_inclination": 98.8035,
        "meta_ra_of_asc_node": 239.7893,
        "meta_arg_of_pericenter": 153.7069,
        "meta_mean_anomaly": 23.5232,
        "meta_ephemeris_type": 0,
        "meta_classification_type": "U",
        "meta_norad_cat_id": 31512,
        "meta_element_set_no": 999,
        "meta_rev_at_epoch": 65469,
        "meta_bstar": 0.0006069495,
        "meta_mean_motion_dot": 2.293e-05,
        "meta_mean_motion_ddot": 0,
        "tle_line1": "1 31512U 99025BXB 25344.48419485  .00002293  00000+0  60695-3 0  9992",
        "tle_line2": "2 31512  98.8035 239.7893 0144210 153.7069  23.5232 14.43807468654693"
      },
      "geometry": {
        "type": "Point",
        "coordinates": [
          -118.60016814896133,
          1.871021578030603
        ]
      }
    },
    {
      "type": "Feature",
      "properties": {
        "norad_id": 31513,
        "name": "FENGYUN 1C DEB",
        "group": "fengyun-1c-debris",
        "lat": -48.33672643211593,
        "lon": -107.0619757650324,
        "alt_km": 794.5580480414073,
        "timestamp": "2025-12-12T07:43:20.796929+00:00",
        "meta_object_name": "FENGYUN 1C DEB",
        "meta_object_id": "1999-025BXC",
        "meta_epoch": "2025-11-25T02:15:23.832576",
        "meta_mean_motion": 14.32315683,
        "meta_eccentricity": 0.00282412,
        "meta_inclination": 98.8622,
        "meta_ra_of_asc_node": 65.435,
        "meta_arg_of_pericenter": 176.3464,
        "meta_mean_anomaly": 183.7931,
        "meta_ephemeris_type": 0,
        "meta_classification_type": "U",
        "meta_norad_cat_id": 31513,
        "meta_element_set_no": 999,
        "meta_rev_at_epoch": 72616,
        "meta_bstar": 0.0023967664,
        "meta_mean_motion_dot": 6.459e-05,
        "meta_mean_motion_ddot": 0,
        "tle_line1": "1 31513U 99025BXC 25329.09402584  .00006459  00000+0  23968-2 0  9994",
        "tle_line2": "2 31513  98.8622  65.4350 0028241 176.3464 183.7931 14.32315683726161"
      },
      "geometry": {
        "type": "Point",
        "coordinates": [
          -107.0619757650324,
          -48.33672643211593
        ]
      }
    }
  ]
}